$$SOE
2461288.500000000, A.D. 2026-Sep-05 00:00:00.0000, 3.998469718939738E+08, -5.151216785259613E+08, 2.876525627026808E+07,
2461295.500000000, A.D. 2026-Sep-12 00:00:00.0000, 4.063910012327012E+08, -5.102434952348053E+08, 2.867672992935890E+07,
2461302.500000000, A.D. 2026-Sep-19 00:00:00.0000, 4.128641802255145E+08, -5.052763572762723E+08, 2.858320161961019E+07,
2461309.500000000, A.D. 2026-Sep-26 00:00:00.0000, 4.192654429090406E+08, -5.002212111122761E+08, 2.848469219909978E+07,
2461316.500000000, A.D. 2026-Oct-03 00:00:00.0000, 4.255937342348956E+08, -4.950790124800565E+08, 2.838122304959118E+07,
2461323.500000000, A.D. 2026-Oct-10 00:00:00.0000, 4.318480100246649E+08, -4.898507261979937E+08, 2.827281608287776E+07,
2461330.500000000, A.D. 2026-Oct-17 00:00:00.0000, 4.380272368922388E+08, -4.845373260483906E+08, 2.815949374367014E+07,
2461337.500000000, A.D. 2026-Oct-24 00:00:00.0000, 4.441303921578263E+08, -4.791397947598915E+08, 2.804127900505355E+07,
2461344.500000000, A.D. 2026-Oct-31 00:00:00.0000, 4.501564638522947E+08, -4.736591241561073E+08, 2.791819534210816E+07,
2461351.500000000, A.D. 2026-Nov-07 00:00:00.0000, 4.561044511508661E+08, -4.680963153961323E+08, 2.779026665878904E+07,
2461358.500000000, A.D. 2026-Nov-14 00:00:00.0000, 4.619733654372420E+08, -4.624523784194278E+08, 2.765751722238168E+07,
2461365.500000000, A.D. 2026-Nov-21 00:00:00.0000, 4.677622301866038E+08, -4.567283299133987E+08, 2.751997182771060E+07,
2461372.500000000, A.D. 2026-Nov-28 00:00:00.0000, 4.734700786691676E+08, -4.509251928117679E+08, 2.737765603706229E+07,
2461379.500000000, A.D. 2026-Dec-05 00:00:00.0000, 4.790959530935186E+08, -4.450439979796322E+08, 2.723059611040807E+07,
2461386.500000000, A.D. 2026-Dec-12 00:00:00.0000, 4.846389053547709E+08, -4.390857849738379E+08, 2.707881886529994E+07,
2461393.500000000, A.D. 2026-Dec-19 00:00:00.0000, 4.900979975005437E+08, -4.330516018722236E+08, 2.692235164034480E+07,
2461400.500000000, A.D. 2026-Dec-26 00:00:00.0000, 4.954723017724404E+08, -4.269425050398049E+08, 2.676122230461176E+07,
2461407.500000000, A.D. 2027-Jan-02 00:00:00.0000, 5.007609004986663E+08, -4.207595590228887E+08, 2.659545927224733E+07,
2461414.500000000, A.D. 2027-Jan-09 00:00:00.0000, 5.059628859541678E+08, -4.145038365510709E+08, 2.642509151334469E+07,
2461421.500000000, A.D. 2027-Jan-16 00:00:00.0000, 5.110773602225976E+08, -4.081764186384611E+08, 2.625014855861491E+07,
2461428.500000000, A.D. 2027-Jan-23 00:00:00.0000, 5.161034351046492E+08, -4.017783948238793E+08, 2.607066049040692E+07,
2461435.500000000, A.D. 2027-Jan-30 00:00:00.0000, 5.210402322588187E+08, -3.953108635977906E+08, 2.588665789888670E+07,
2461442.500000000, A.D. 2027-Feb-06 00:00:00.0000, 5.258868839977813E+08, -3.887749326758321E+08, 2.569817179210287E+07,
2461449.500000000, A.D. 2027-Feb-13 00:00:00.0000, 5.306425342788925E+08, -3.821717178993249E+08, 2.550523360174732E+07,
2461456.500000000, A.D. 2027-Feb-20 00:00:00.0000, 5.353063375239394E+08, -3.755023415541754E+08, 2.530787543666171E+07,
2461463.500000000, A.D. 2027-Feb-27 00:00:00.0000, 5.398774566628759E+08, -3.687679333219618E+08, 2.510613019320042E+07,
2461470.500000000, A.D. 2027-Mar-06 00:00:00.0000, 5.443550634188408E+08, -3.619696319402583E+08, 2.490003140248962E+07,
2461477.500000000, A.D. 2027-Mar-13 00:00:00.0000, 5.487383392341416E+08, -3.551085855225210E+08, 2.468961312865214E+07,
2461484.500000000, A.D. 2027-Mar-20 00:00:00.0000, 5.530264757079432E+08, -3.481859513722064E+08, 2.447490995323271E+07,
2461491.500000000, A.D. 2027-Mar-27 00:00:00.0000, 5.572186747478106E+08, -3.412028958401149E+08, 2.425595698231325E+07,
2461498.500000000, A.D. 2027-Apr-03 00:00:00.0000, 5.613141486381367E+08, -3.341605942727409E+08, 2.403278985371737E+07,
2461505.500000000, A.D. 2027-Apr-10 00:00:00.0000, 5.653121200867714E+08, -3.270602310286385E+08, 2.380544474050836E+07,
2461512.500000000, A.D. 2027-Apr-17 00:00:00.0000, 5.692118222718812E+08, -3.199029995771974E+08, 2.357395834753801E+07,
2461519.500000000, A.D. 2027-Apr-24 00:00:00.0000, 5.730124989680085E+08, -3.126901027419969E+08, 2.333836788864267E+07,
2461526.500000000, A.D. 2027-May-01 00:00:00.0000, 5.767134050505596E+08, -3.054227530606925E+08, 2.309871101920629E+07,
2461533.500000000, A.D. 2027-May-08 00:00:00.0000, 5.803138076859113E+08, -2.981021725125576E+08, 2.285502575701711E+07,
2461540.500000000, A.D. 2027-May-15 00:00:00.0000, 5.838129867105389E+08, -2.907295906599090E+08, 2.260735060666853E+07,
2461547.500000000, A.D. 2027-May-22 00:00:00.0000, 5.872102326356319E+08, -2.833062437950608E+08, 2.235572481920181E+07,
2461554.500000000, A.D. 2027-May-29 00:00:00.0000, 5.905048456330191E+08, -2.758333765609024E+08, 2.210018835922764E+07,
2461561.500000000, A.D. 2027-Jun-05 00:00:00.0000, 5.936961363873800E+08, -2.683122429129822E+08, 2.184078175439042E+07,
2461568.500000000, A.D. 2027-Jun-12 00:00:00.0000, 5.967834268077109E+08, -2.607441059912756E+08, 2.157754604675263E+07,
2461575.500000000, A.D. 2027-Jun-19 00:00:00.0000, 5.997660502673789E+08, -2.531302378368221E+08, 2.131052280024144E+07,
2461582.500000000, A.D. 2027-Jun-26 00:00:00.0000, 6.026433516523241E+08, -2.454719192146906E+08, 2.103975411737551E+07,
2461589.500000000, A.D. 2027-Jul-03 00:00:00.0000, 6.054146873495712E+08, -2.377704395350195E+08, 2.076528265404622E+07,
2461596.500000000, A.D. 2027-Jul-10 00:00:00.0000, 6.080794252128972E+08, -2.300270968633967E+08, 2.048715162991580E+07,
2461603.500000000, A.D. 2027-Jul-17 00:00:00.0000, 6.106369445419608E+08, -2.222431980594089E+08, 2.020540482815976E+07,
2461610.500000000, A.D. 2027-Jul-24 00:00:00.0000, 6.130866362311860E+08, -2.144200591060925E+08, 1.992008656528338E+07,
2461617.500000000, A.D. 2027-Jul-31 00:00:00.0000, 6.154279034996063E+08, -2.065590053945334E+08, 1.963124161270671E+07,
2461624.500000000, A.D. 2027-Aug-07 00:00:00.0000, 6.176601630009866E+08, -1.986613708115066E+08, 1.933891518282827E+07,
2461631.500000000, A.D. 2027-Aug-14 00:00:00.0000, 6.197828440136224E+08, -1.907284958834177E+08, 1.904315317009559E+07,
2461638.500000000, A.D. 2027-Aug-21 00:00:00.0000, 6.217953863281645E+08, -1.827617283410546E+08, 1.874400231549198E+07,
2461645.500000000, A.D. 2027-Aug-28 00:00:00.0000, 6.236972402640302E+08, -1.747624249018566E+08, 1.844151007797756E+07,
2461652.500000000, A.D. 2027-Sep-04 00:00:00.0000, 6.254878676330106E+08, -1.667319517670076E+08, 1.813572452555495E+07,
2461659.500000000, A.D. 2027-Sep-11 00:00:00.0000, 6.271667422548370E+08, -1.586716844944156E+08, 1.782669431969965E+07,
2461666.500000000, A.D. 2027-Sep-18 00:00:00.0000, 6.287333501579691E+08, -1.505830078974905E+08, 1.751446872756734E+07,
2461673.500000000, A.D. 2027-Sep-25 00:00:00.0000, 6.301871896945136E+08, -1.424673160469227E+08, 1.719909763437986E+07,
2461680.500000000, A.D. 2027-Oct-02 00:00:00.0000, 6.315277716444422E+08, -1.343260123473546E+08, 1.688063155109380E+07,
2461687.500000000, A.D. 2027-Oct-09 00:00:00.0000, 6.327546193318003E+08, -1.261605096928721E+08, 1.655912161467601E+07,
2461694.500000000, A.D. 2027-Oct-16 00:00:00.0000, 6.338672688163444E+08, -1.179722307556775E+08, 1.623461957048224E+07,
2461701.500000000, A.D. 2027-Oct-23 00:00:00.0000, 6.348652694206580E+08, -1.097626084131710E+08, 1.590717771222917E+07,
2461708.500000000, A.D. 2027-Oct-30 00:00:00.0000, 6.357481849674896E+08, -1.015330857025318E+08, 1.557684879489917E+07,
2461715.500000000, A.D. 2027-Nov-06 00:00:00.0000, 6.365155945642395E+08, -9.328511417394751E+07, 1.524368611941176E+07,
2461722.500000000, A.D. 2027-Nov-13 00:00:00.0000, 6.371670909500030E+08, -8.502015271846475E+07, 1.490774380149726E+07,
2461729.500000000, A.D. 2027-Nov-20 00:00:00.0000, 6.377022793072896E+08, -7.673966905650379E+07, 1.456907677995659E+07,
2461736.500000000, A.D. 2027-Nov-27 00:00:00.0000, 6.381207781556393E+08, -6.844514092236879E+07, 1.422774065818006E+07,
2461743.500000000, A.D. 2027-Dec-04 00:00:00.0000, 6.384222203035870E+08, -6.013805603047353E+07, 1.388379163924070E+07,
2461750.500000000, A.D. 2027-Dec-11 00:00:00.0000, 6.386062533085703E+08, -5.181991178709243E+07, 1.353728652634599E+07,
2461757.500000000, A.D. 2027-Dec-18 00:00:00.0000, 6.386725397197733E+08, -4.349221508665730E+07, 1.318828273578472E+07,
2461764.500000000, A.D. 2027-Dec-25 00:00:00.0000, 6.386207572557042E+08, -3.515648219463225E+07, 1.283683830831201E+07,
2461771.500000000, A.D. 2028-Jan-01 00:00:00.0000, 6.384505989576391E+08, -2.681423870213642E+07, 1.248301191643355E+07,
$$EOE